BEIDOU-2 IGSO-1 (C06)   
1 36828U 10036A   26188.62304566 -.00000058  00000+0  00000+0 0  9996
2 36828  54.3062 162.7756 0059224 225.1869 229.2421  1.00266308 58302
BEIDOU-2 G4 (C04)       
1 37210U 10057A   26189.81630007 -.00000102  00000+0  00000+0 0  9999
2 37210   3.6970  68.8160 0005298 185.3883 126.3837  1.00270552 57508
BEIDOU-2 IGSO-2 (C07)   
1 37256U 10068A   26189.60313632 -.00000203  00000+0  00000+0 0  9992
2 37256  47.5085 271.5668 0056755 213.3757 127.0514  1.00276139 57006
BEIDOU-2 IGSO-3 (C08)   
1 37384U 11013A   26190.51857615 -.00000172  00000+0  00000+0 0  9996
2 37384  62.4382  39.9419 0035198 183.2390 357.7550  1.00261852 55882
BEIDOU-2 IGSO-4 (C09)   
1 37763U 11038A   26189.92399286  .00000047  00000+0  00000+0 0  9992
2 37763  54.6042 165.4802 0160166 231.4337 316.7492  1.00281046 54865
BEIDOU-2 IGSO-5 (C10)   
1 37948U 11073A   26183.72937883 -.00000128  00000+0  00000+0 0  9990
2 37948  47.6496 271.3544 0114527 222.0502 141.5350  1.00270596 53296
BEIDOU-2 G5 (C05)       
1 38091U 12008A   26190.15273593  .00000068  00000+0  00000+0 0  9997
2 38091   3.6249  69.5622 0007367 272.3929  58.8359  1.00269062 52588
BEIDOU-2 M3 (C11)       
1 38250U 12018A   26189.66701666 -.00000068  00000+0  00000+0 0  9997
2 38250  55.7381 304.1519 0020682 272.7938  86.9867  1.86230123 96340
BEIDOU-2 M4 (C12)       
1 38251U 12018B   26186.91456642 -.00000061  00000+0  00000+0 0  9997
2 38251  55.6406 303.4567 0011823 273.7127  86.1743  1.86229838 96291
BEIDOU-2 M6 (C14)       
1 38775U 12050B   26189.30899616 -.00000046  00000+0  00000+0 0  9995
2 38775  56.5624  62.1961 0013100   0.6971 359.3663  1.86230889 93702
BEIDOU-2 G6 (C02)       
1 38953U 12059A   26189.92091885 -.00000164  00000+0  00000+0 0  9993
2 38953   4.4729  73.2936 0008926 330.1279 298.9370  1.00268620 50127
BEIDOU-3S IGSO-1S (C31) 
1 40549U 15019A   26183.80025122 -.00000190  00000+0  00000+0 0  9997
2 40549  49.1798 295.2769 0076860 219.1125 144.2493  1.00680073 41232
BEIDOU-3S M2S (C58)     
1 40748U 15037A   26189.80135499 -.00000066  00000+0  00000+0 0  9995
2 40748  54.8502 301.3028 0009251 257.3579 102.5592  1.86232305 74523
BEIDOU-3S M1S (C57)     
1 40749U 15037B   26189.46923616 -.00000065  00000+0  00000+0 0  9993
2 40749  54.8472 301.3010 0002886  63.4695 296.5811  1.86254793 74526
BEIDOU-3S IGSO-2S (C56) 
1 40938U 15053A   26189.66207360 -.00000108  00000+0  00000+0 0  9992
2 40938  49.1885 258.5272 0066044 192.8213 167.4709  1.00254954 39576
BEIDOU-2 IGSO-6 (C13)   
1 41434U 16021A   26177.11016981 -.00000145  00000+0  00000+0 0  9995
2 41434  60.2385  37.9495 0057558 231.0163 137.2672  1.00258926 37578
BEIDOU-2 G7 (C03)       
1 41586U 16037A   26190.66198130 -.00000341  00000+0  00000+0 0  9990
2 41586   1.7726  69.5133 0006074   6.8145 199.9992  1.00264599  7110
BEIDOU-3 M1 (C19)       
1 43001U 17069A   26189.07433103 -.00000045  00000+0  00000+0 0  9996
2 43001  56.7094  62.3976 0009504 327.5124  32.4908  1.86231373 58997
BEIDOU-3 M2 (C20)       
1 43002U 17069B   26187.93923990 -.00000042  00000+0  00000+0 0  9995
2 43002  56.7079  62.4701 0008338 357.4299   2.6295  1.86230659 58968
BEIDOU-3 M7 (C27)       
1 43107U 18003A   26189.29199427 -.00000066  00000+0  00000+0 0  9997
2 43107  54.3078 301.5795 0004480  98.0554 262.0167  1.86228392 57749
BEIDOU-3 M8 (C28)       
1 43108U 18003B   26188.16254440 -.00000063  00000+0  00000+0 0  9997
2 43108  54.3015 301.6004 0002979 257.8270 102.1630  1.86231031 57738
BEIDOU-3 M4 (C22)       
1 43207U 18018A   26188.06871672 -.00000042  00000+0  00000+0 0  9991
2 43207  56.6676  62.4940 0007428  26.7445 333.3571  1.86231345 57110
BEIDOU-3 M3 (C21)       
1 43208U 18018B   26187.59825105 -.00000041  00000+0  00000+0 0  9998
2 43208  56.6666  62.5134 0007880 344.5989  15.4415  1.86231254 57105
BEIDOU-3 M9 (C29)       
1 43245U 18029A   26189.42706904 -.00000063  00000+0  00000+0 0  9994
2 43245  54.1736 299.2068 0001095 182.3611 177.6623  1.86228291 56292
BEIDOU-3 M10 (C30)      
1 43246U 18029B   26189.36131538 -.00000063  00000+0  00000+0 0  9993
2 43246  54.1715 299.2350 0003338  36.6735 323.3733  1.86229516 56275
BEIDOU-2 IGSO-7 (C16)   
1 43539U 18057A   26182.89122331 -.00000033  00000+0  00000+0 0  9998
2 43539  55.1981 162.9292 0104946 237.8611 308.6338  1.00246939 29273
BEIDOU-3 M5 (C23)       
1 43581U 18062A   26189.58528560  .00000121  00000+0  00000+0 0  9995
2 43581  54.0866 181.5769 0005712 292.3518  67.5967  1.86228617 54037
BEIDOU-3 M6 (C24)       
1 43582U 18062B   26188.37493262  .00000119  00000+0  00000+0 0  9999
2 43582  54.0860 181.6071 0005088   9.1977 350.8186  1.86227975 54013
BEIDOU-3 M12 (C26)      
1 43602U 18067A   26188.31336325  .00000118  00000+0  00000+0 0  9996
2 43602  54.1816 180.3578 0007907  30.2614 329.7892  1.86227798 53494
BEIDOU-3 M11 (C25)      
1 43603U 18067B   26189.52240644  .00000120  00000+0  00000+0 0  9992
2 43603  54.1790 180.2804 0004622  13.7358 346.2837  1.86227291 53546
BEIDOU-3 M13 (C32)      
1 43622U 18072A   26188.94016875 -.00000045  00000+0  00000+0 0  9998
2 43622  56.6423  61.9754 0006475 331.9644  28.0627  1.86231552 53049
BEIDOU-3 M14 (C33)      
1 43623U 18072B   26189.34256841 -.00000046  00000+0  00000+0 0  9994
2 43623  56.6446  61.9559 0005520  10.5134 349.5598  1.86231219 53040
BEIDOU-3 M16 (C35)      
1 43647U 18078A   26188.42370037 -.00000062  00000+0  00000+0 0  9996
2 43647  54.0702 299.2766 0006751  40.2464 319.8292  1.86232245 52536
BEIDOU-3 M15 (C34)      
1 43648U 18078B   26187.47907947 -.00000060  00000+0  00000+0 0  9995
2 43648  54.0667 299.3099 0003770  58.5392 301.5247  1.86232415 52534
BEIDOU-3 G1 (C59)       
1 43683U 18085A   26190.24408031 -.00000097  00000+0  00000+0 0  9991
2 43683   2.9208  96.7949 0008285 354.9204  83.2768  1.00273138 28280
BEIDOU-3 M17 (C36)      
1 43706U 18093A   26190.35885625  .00000118  00000+0  00000+0 0  9999
2 43706  54.1700 181.5443 0010165 293.4491  88.7643  1.86228239 51957
BEIDOU-3 M18 (C37)      
1 43707U 18093B   26189.11529016  .00000121  00000+0  00000+0 0  9995
2 43707  54.1710 181.5786 0008055 321.5871  38.3641  1.86226650 51920
BEIDOU-3 IGSO-1 (C38)   
1 44204U 19023A   26189.48210734 -.00000209  00000+0  00000+0 0  9994
2 44204  58.7247  37.4318 0025582 224.0549 317.4664  1.00285216  7422
BEIDOU-2 G8 (C01)       
1 44231U 19027A   26190.31229302 -.00000235  00000+0  00000+0 0  9992
2 44231   1.7106  74.5118 0009863 284.0468 185.6210  1.00273938 26302
BEIDOU-3 IGSO-2 (C39)   
1 44337U 19035A   26190.30743966 -.00000077  00000+0  00000+0 0  9998
2 44337  55.2505 158.6691 0039601 216.3164 141.7794  1.00259480 25888
BEIDOU-3 M24 (C46)      
1 44542U 19061A   26189.72060771  .00000122  00000+0  00000+0 0  9995
2 44542  54.3976 182.0017 0008596 359.4835   0.5254  1.86229304 46190
BEIDOU-3 M23 (C45)      
1 44543U 19061B   26189.43788944  .00000122  00000+0  00000+0 0  9993
2 44543  54.3960 181.9796 0005860 339.6838 102.2392  1.86227401 46199
BEIDOU-3 M22 (C44)      
1 44793U 19078A   26186.33900275 -.00000058  00000+0  00000+0 0  9996
2 44793  53.9186 299.1896 0005914  49.8831 310.1966  1.86227646 44980
BEIDOU-3 M21 (C43)      
1 44794U 19078B   26189.16367219 -.00000063  00000+0  00000+0 0  9992
2 44794  53.8889 299.0507 0003790  48.5315 311.5256  1.86228045 45040
BEIDOU-3 M19 (C41)      
1 44864U 19090A   26190.26753905 -.00000047  00000+0  00000+0 0  9990
2 44864  56.5775  62.0617 0016984 297.5653 280.0700  1.86231620 44644
BEIDOU-3 M20 (C42)      
1 44865U 19090B   26189.59078983 -.00000046  00000+0  00000+0 0  9990
2 44865  56.5782  62.1188 0014984 312.3282 261.1678  1.86231598 44614
BEIDOU-3 G2 (C60)       
1 45344U 20017A   26190.01439480 -.00000129  00000+0  00000+0 0  9998
2 45344   2.9054  47.6391 0002272  56.0849 268.4866  1.00270249 23478
BEIDOU-3 G3 (C61)       
1 45807U 20040A   26190.30561965 -.00000342  00000+0  00000+0 0  9991
2 45807   2.4980  67.4798 0001928 331.5604 108.7363  1.00267301 22295
BEIDOU-3 G4 (C62)       
1 56564U 23066A   26190.63794542 -.00000268  00000+0  00000+0 0  9996
2 56564   0.4653 337.1844 0004854 187.5205 132.5504  1.00274624 11610
BEIDOU-3 M28 (C50)      
1 58654U 23207A   26189.77762795 -.00000048  00000+0  00000+0 0  9999
2 58654  55.7718  61.5748 0002610   1.3518 358.7096  1.86229669 17242
BEIDOU-3 M26 (C48)      
1 58655U 23207B   26190.11208069 -.00000048  00000+0  00000+0 0  9999
2 58655  55.7743  61.5501 0002208 324.1818  35.8641  1.86229653 17231
BEIDOU-3 M25 (C47)      
1 61186U 24168B   26189.40873657 -.00000066  00000+0  00000+0 0  9990
2 61186  54.4534 301.5057 0003285 292.7058  73.2232  1.86229965 12180
BEIDOU-3 M27 (C49)      
1 61187U 24168C   26190.26802481 -.00000067  00000+0  00000+0 0  9995
2 61187  54.4479 301.4584 0001007  49.0108 308.0590  1.86229980  9664
